0 FENGYUN 1C DEB
1 31335U 99025BQP 13281.50212388  .00010530  00000-0  25707-2 0  7130
2 31335 098.8067 016.7907 0119373 213.6832 145.6734 14.48550052343356
0 FENGYUN 1C DEB
1 31335U 99025BQP 13281.70935025  .00015678  00000-0  38171-2 0  7140
2 31335 098.8068 017.0069 0119378 212.9982 146.3720 14.48561054343383
0 FENGYUN 1C DEB
1 31335U 99025BQP 13283.50525570  .00018079  00000-0  43926-2 0  7153
2 31335 098.8057 018.8796 0119514 207.8719 151.6037 14.48610632343646
0 FENGYUN 1C DEB
1 31335U 99025BQP 13292.20759049  .00017611  00000-0  42563-2 0  7168
2 31335 098.8073 027.9552 0119119 182.1013 177.9695 14.48887183344906
0 FENGYUN 1C DEB
1 31335U 99025BQP 13294.48648494  .00021596  00000-0  52053-2 0  7174
2 31335 098.8056 030.3313 0119161 175.0795 185.1599 14.48957525345234
